H1 CPF 01  gfz 2022 08 22 00  7341 terrasarx 
H2 0702601  6201 31698    2022 08 22 00 59 42 2022 08 27 00 00 42   120 1 1  0 0 0
H9
10 0 59815  12942.000000  0   -4907264.453  -3012844.082   3771759.958
10 0 59815  13062.000000  0   -4539558.006  -2568063.361   4490458.145
10 0 59815  13182.000000  0   -4084396.911  -2085598.429   5130114.751
10 0 59815  13302.000000  0   -3549188.886  -1575360.482   5679503.518
10 0 59815  13422.000000  0   -2942912.728  -1047597.706   6128996.020
10 0 59815  13542.000000  0   -2275961.098   -512687.732   6470727.094
10 0 59815  13662.000000  0   -1559955.773     19068.085   6698726.041
10 0 59815  13782.000000  0    -807541.455    537641.809   6809013.444
10 0 59815  13902.000000  0     -32161.908   1033466.469   6799666.243
10 0 59815  14022.000000  0     752179.771   1497611.956   6670849.228
10 0 59815  14142.000000  0    1531173.376   1921946.035   6424812.348
10 0 59815  14262.000000  0    2290461.824   2299276.833   6065853.180
10 0 59815  14382.000000  0    3015905.365   2623475.347   5600247.186
10 0 59815  14502.000000  0    3693847.460   2889577.046   5036144.577
10 0 59815  14622.000000  0    4311375.340   3093860.052   4383432.700
10 0 59815  14742.000000  0    4856570.094   3233898.134   3653568.642
10 0 59815  14862.000000  0    5318746.331   3308588.538   2859381.886
10 0 59815  14982.000000  0    5688668.837   3318150.406   2014846.579
10 0 59815  15102.000000  0    5958742.960   3264097.183   1134833.356
10 0 59815  15222.000000  0    6123175.670   3149182.099    234841.081
10 0 59815  15342.000000  0    6178100.444   2977316.873   -669284.982
10 0 59815  15462.000000  0    6121663.399   2753465.645  -1561640.975
10 0 59815  15582.000000  0    5954068.439   2483518.997  -2426551.355
10 0 59815  15702.000000  0    5677582.132   2174151.457  -3248850.894
10 0 59815  15822.000000  0    5296497.065   1832663.736  -4014154.490
10 0 59815  15942.000000  0    4817055.666   1466815.064  -4709109.873
10 0 59815  16062.000000  0    4247335.382   1084650.205  -5321626.510
10 0 59815  16182.000000  0    3597102.217    694326.483  -5841077.660
10 0 59815  16302.000000  0    2877634.959    303943.556  -6258475.332
10 0 59815  16422.000000  0    2101523.125    -78620.391  -6566614.366
10 0 59815  16542.000000  0    1282445.229   -445863.016  -6760185.320
10 0 59815  16662.000000  0     434929.466   -790800.835  -6835857.782
10 0 59815  16782.000000  0    -425901.034  -1107098.003  -6792330.472
10 0 59815  16902.000000  0   -1284591.081  -1389179.020  -6630350.467
10 0 59815  17022.000000  0   -2125624.479  -1632324.782  -6352702.641
10 0 59815  17142.000000  0   -2933698.428  -1832750.328  -5964166.116
10 0 59815  17262.000000  0   -3693996.043  -1987663.159  -5471440.934
10 0 59815  17382.000000  0   -4392457.472  -2095302.505  -4883044.963
10 0 59815  17502.000000  0   -5016043.035  -2154957.239  -4209177.699
10 0 59815  17622.000000  0   -5552982.436  -2166962.361  -3461554.160
10 0 59815  17742.000000  0   -5993006.274  -2132673.898  -2653209.386
10 0 59815  17862.000000  0   -6327552.993  -2054421.793  -1798275.659
10 0 59815  17982.000000  0   -6549946.634  -1935441.884   -911736.634
10 0 59815  18102.000000  0   -6655539.959  -1779788.163     -9161.882
10 0 59815  18222.000000  0   -6641819.000  -1592227.104    893572.545
10 0 59815  18342.000000  0   -6508465.028  -1378116.281   1780571.905
10 0 59815  18462.000000  0   -6257371.865  -1143271.044   2636211.957
10 0 59815  18582.000000  0   -5892618.376   -893822.550   3445422.683
10 0 59815  18702.000000  0   -5420397.277   -636070.053   4193961.318
10 0 59815  18822.000000  0   -4848899.881   -376332.189   4868667.323
10 0 59815  18942.000000  0   -4188164.113   -120801.149   5457693.033
10 0 59815  19062.000000  0   -3449889.714    124597.696   5950709.957
10 0 59815  19182.000000  0   -2647221.802    354337.055   6339086.103
10 0 59815  19302.000000  0   -1794509.652    563406.558   6616031.069
10 0 59815  19422.000000  0    -907045.316    747417.492   6776709.125
10 0 59815  19542.000000  0       -787.276    902692.258   6818317.504
10 0 59815  19662.000000  0     907926.030   1026336.136   6740131.609
10 0 59815  19782.000000  0    1802669.540   1116291.118   6543516.950
10 0 59815  19902.000000  0    2667227.429   1171370.459   6231906.777
10 0 59815  20022.000000  0    3485887.167   1191273.227   5810746.664
10 0 59815  20142.000000  0    4243727.871   1176578.891   5287404.207
10 0 59815  20262.000000  0    4926895.330   1128722.114   4671046.180
10 0 59815  20382.000000  0    5522862.995   1049948.184   3972485.552
10 0 59815  20502.000000  0    6020672.205    943250.020   3203994.780
10 0 59815  20622.000000  0    6411142.998    812287.575   2379089.927
10 0 59815  20742.000000  0    6687052.451    661291.031   1512292.093
10 0 59815  20862.000000  0    6843277.443    494951.261    618866.500
10 0 59815  20982.000000  0    6876894.830    318298.898   -285453.272
10 0 59815  21102.000000  0    6787238.511    136575.643  -1184751.672
10 0 59815  21222.000000  0    6575909.644    -44898.618  -2063220.335
10 0 59815  21342.000000  0    6246741.170   -220859.962  -2905443.184
10 0 59815  21462.000000  0    5805718.936   -386232.306  -3696671.745
10 0 59815  21582.000000  0    5260860.850   -536253.309  -4423085.454
10 0 59815  21702.000000  0    4622057.556   -666590.797  -5072030.713
10 0 59815  21822.000000  0    3900881.325   -773447.365  -5632234.713
10 0 59815  21942.000000  0    3110367.247   -853652.305  -6093992.936
10 0 59815  22062.000000  0    2264770.480   -904738.071  -6449326.776
10 0 59815  22182.000000  0    1379306.242   -924998.904  -6692109.502
10 0 59815  22302.000000  0     469877.600   -913533.142  -6818161.602
10 0 59815  22422.000000  0    -447206.398   -870266.982  -6825315.286
10 0 59815  22542.000000  0   -1355516.504   -795959.744  -6713447.090
10 0 59815  22662.000000  0   -2238790.990   -692190.813  -6484480.268
10 0 59815  22782.000000  0   -3081220.348   -561328.101  -6142353.994
10 0 59815  22902.000000  0   -3867723.873   -406479.001  -5692963.181
10 0 59815  23022.000000  0   -4584218.999   -231423.992  -5144068.340
10 0 59815  23142.000000  0   -5217875.744    -40533.946  -4505172.252
10 0 59815  23262.000000  0   -5757352.659    161327.019  -3787367.648
10 0 59815  23382.000000  0   -6193010.737    368912.840  -3003154.209
10 0 59815  23502.000000  0   -6517098.012    576717.732  -2166227.291
10 0 59815  23622.000000  0   -6723900.606    779107.766  -1291241.479
10 0 59815  23742.000000  0   -6809857.151    970457.266   -393552.598
10 0 59815  23862.000000  0   -6773629.337   1145287.441    511058.722
10 0 59815  23982.000000  0   -6616127.545   1298403.553   1406670.832
10 0 59815  24102.000000  0   -6340493.376   1425027.535   2277509.650
10 0 59815  24222.000000  0   -5952036.516   1520921.983   3108236.025
10 0 59815  24342.000000  0   -5458127.074   1582502.064   3884224.267
10 0 59815  24462.000000  0   -4868046.944   1606932.679   4591824.651
10 0 59815  24582.000000  0   -4192805.670   1592208.779   5218604.939
10 0 59815  24702.000000  0   -3444926.067   1537217.049   5753567.408
10 0 59815  24822.000000  0   -2638204.204   1441777.778   6187339.168
10 0 59815  24942.000000  0   -1787447.095   1306666.477   6512332.424
10 0 59815  25062.000000  0    -908194.769   1133613.795   6722870.219
10 0 59815  25182.000000  0     -16434.360    925284.791   6815278.478
10 0 59815  25302.000000  0     871689.992    685237.748   6787945.624
10 0 59815  25422.000000  0    1740168.130    417863.373   6641348.777
10 0 59815  25542.000000  0    2573411.119    128305.220   6378046.217
10 0 59815  25662.000000  0    3356531.095   -177637.936   6002636.872
10 0 59815  25782.000000  0    4075609.735   -493626.279   5521684.778
10 0 59815  25902.000000  0    4717949.460   -812907.624   4943610.048
10 0 59815  26022.000000  0    5272304.180  -1128458.487   4278547.726
10 0 59815  26142.000000  0    5729084.473  -1433134.665   3538174.565
10 0 59815  26262.000000  0    6080533.251  -1719828.711   2735506.349
10 0 59815  26382.000000  0    6320866.735  -1981630.077   1884668.239
10 0 59815  26502.000000  0    6446377.241  -2211984.427   1000642.873
10 0 59815  26622.000000  0    6455495.209  -2404848.260     99000.217
10 0 59815  26742.000000  0    6348807.774  -2554834.456   -804385.303
10 0 59815  26862.000000  0    6129033.770  -2657344.743  -1693623.619
10 0 59815  26982.000000  0    5800954.662  -2708686.468  -2553097.060
10 0 59815  27102.000000  0    5371305.070  -2706169.456  -3367740.540
10 0 59815  27222.000000  0    4848626.335  -2648181.730  -4123308.207
10 0 59815  27342.000000  0    4243087.750  -2534243.094  -4806622.232
10 0 59815  27462.000000  0    3566278.325  -2365034.805  -5405799.013
10 0 59815  27582.000000  0    2830975.913  -2142404.839  -5910446.993
10 0 59815  27702.000000  0    2050901.953  -1869350.167  -6311836.072
10 0 59815  27822.000000  0    1240463.586  -1549976.137  -6603039.299
10 0 59815  27942.000000  0     414487.337  -1189433.071  -6779041.356
10 0 59815  28062.000000  0    -412048.357   -793833.292  -6836815.324
10 0 59815  28182.000000  0   -1224278.742   -370149.014  -6775368.509
10 0 59815  28302.000000  0   -2007714.010     73907.755  -6595757.736
10 0 59815  28422.000000  0   -2748491.823    530022.055  -6301072.124
10 0 59815  28542.000000  0   -3433617.105    989426.952  -5896385.804
10 0 59815  28662.000000  0   -4051188.178   1443067.405  -5388680.690
10 0 59815  28782.000000  0   -4590605.937   1881774.299  -4786737.560
10 0 59815  28902.000000  0   -5042761.485   2296447.709  -4100995.810
10 0 59815  29022.000000  0   -5400197.548   2678243.620  -3343381.722
10 0 59815  29142.000000  0   -5657241.004   3018760.509  -2527109.410
10 0 59815  29262.000000  0   -5810103.927   3310222.889  -1666455.242
10 0 59815  29382.000000  0   -5856948.565   3545656.998   -776508.486
99
